OBJECT_NAME,OBJECT_ID,EPOCH,MEAN_MOTION,ECCENTRICITY,INCLINATION,RA_OF_ASC_NODE,ARG_OF_PERICENTER,MEAN_ANOMALY,EPHEMERIS_TYPE,CLASSIFICATION_TYPE,NORAD_CAT_ID,ELEMENT_SET_NO,REV_AT_EPOCH,BSTAR,MEAN_MOTION_DOT,MEAN_MOTION_DDOT
KUZGTU 1 (RS47S),2023-091AV,2026-06-09T02:51:50.753952,15.29674625,.00123376,97.5067,224.5181,122.8475,237.3955,0,U,57217,999,16314,.38200276E-3,.10934E-3,0
SONATE-2,2024-043Q,2026-06-08T23:36:27.785952,15.58104995,.00066393,97.5525,309.8812,223.4398,136.6335,0,U,59112,999,12661,.43230992E-3,.3251E-3,0
MESAT1,2024-125G,2026-06-09T02:27:21.477024,15.62333270,.00088186,97.2315,17.4056,236.3134,123.7285,0,U,60209,999,10830,.52745541E-3,.46749E-3,0
OOV-CUBE (TUBSAT-30),2024-128F,2026-06-08T19:18:32.916096,15.02739260,.00456878,61.9950,254.8019,131.8693,228.6311,0,U,60240,999,10485,.20896245E-3,.2654E-4,0
COLIBRI-S (RS67S),2024-199M,2026-06-09T05:42:38.828160,15.47393907,.00065729,97.3008,34.0214,317.0929,42.9807,0,U,61746,999,13618,.38027061E-3,.19405E-3,0
HORS 3 (RS81S),2024-199U,2026-06-09T05:41:30.288768,15.54423162,.00042259,97.2991,35.9226,325.9437,34.1546,0,U,61753,999,13632,.4821931E-3,.31643E-3,0
HORS 4 (RS82S),2024-199V,2026-06-09T06:51:02.319264,15.58944892,.00031676,97.2940,37.1231,312.8153,47.2837,0,U,61754,999,13641,.56842432E-3,.44184E-3,0
ARCTICSAT 1 (RS74S),2024-199AD,2026-06-08T12:49:01.524288,16.08763925,.00081397,97.2853,43.1177,201.8763,158.2174,0,U,61762,999,13673,.11762807E-2,.1003063E-1,.58353958E-3
SIT-2086,2024-199AF,2026-06-09T06:29:04.780608,15.52538483,.00044625,97.2948,36.4604,296.2636,63.8158,0,U,61764,999,13320,.53986462E-3,.33112E-3,0
HYPERVIEW 1G (RS66S),2024-199AP,2026-06-08T20:46:11.697888,15.73707202,.00020385,97.2892,39.1772,275.6858,84.4174,0,U,61772,999,13336,.70383707E-3,.99538E-3,0
ALTAIR (RS65S),2024-199AW,2026-06-09T07:10:58.198944,15.36871606,.00119084,97.3044,29.7027,342.6494,17.4341,0,U,61779,999,13590,.29113854E-3,.10439E-3,0
ASRTU-1 (AO-123),2024-199AY,2026-06-09T06:43:41.360448,15.35561332,.00131285,97.3015,29.0227,344.8076,15.2771,0,U,61781,999,13271,.19256992E-3,.6593E-4,0
SAMSAT-IONOSPHERE (RS75S),2024-199BB,2026-06-09T06:49:28.322976,15.56938329,.0006244,97.2962,35.9893,317.9584,42.1191,0,U,61784,999,13633,.56992936E-3,.41109E-3,0
RTU MIREA 1 (RS51S),2024-199BC,2026-06-09T06:16:54.947712,15.60225826,.00056814,97.2951,36.7581,311.5809,48.4961,0,U,61785,999,13323,.63020574E-3,.51506E-3,0
TEVEL2-4,2025-052D,2026-06-09T05:26:05.601408,15.34330791,.00045332,97.3920,56.6072,118.1201,242.0501,0,U,63213,999,6889,.46062864E-3,.15249E-3,0
TEVEL2-5,2025-052E,2026-06-09T04:20:24.994176,15.34159706,.00044224,97.3911,56.5103,119.9533,240.2150,0,U,63214,999,6888,.4915722E-3,.16193E-3,0
TEVEL2-6,2025-052F,2026-06-09T06:11:49.750944,15.34124854,.00044587,97.3915,56.5722,119.7747,240.3940,0,U,63215,999,6889,.50178685E-3,.16514E-3,0
TEVEL2-1,2025-052H,2026-06-09T05:15:44.543520,15.33600892,.00043033,97.3890,56.1670,128.3917,231.7713,0,U,63217,999,6887,.47282693E-3,.15298E-3,0
TEVEL2-3,2025-052J,2026-06-09T06:42:23.209056,15.33659205,.00044119,97.3888,56.2474,129.8518,230.3113,0,U,63218,999,6888,.49846388E-3,.16163E-3,0
TEVEL2-2,2025-052K,2026-06-08T16:44:35.826432,15.33595395,.00042303,97.3887,55.6477,131.0442,229.1167,0,U,63219,999,6879,.56086739E-3,.18164E-3,0
TEVEL2-9,2025-052AD,2026-06-09T04:29:00.213792,15.31651687,.00070209,97.3949,55.5291,153.2929,206.8676,0,U,63237,999,6880,.47808688E-3,.14556E-3,0
TEVEL2-7,2025-052AE,2026-06-09T05:25:43.286016,15.31364267,.00071258,97.3950,55.4878,153.9029,206.2573,0,U,63238,999,6880,.44435407E-3,.13402E-3,0
TEVEL2-8,2025-052AF,2026-06-09T05:37:29.105760,15.31348638,.00072092,97.3943,55.4720,154.6102,205.5495,0,U,63239,999,6880,.46151228E-3,.13916E-3,0
INNOSAT 16 (RS92S7),2025-155C,2026-06-09T06:16:31.181664,15.25372593,.00095989,97.4557,127.4150,203.8937,156.1857,0,U,64878,999,7946,.19932505E-3,.4962E-4,0
GEOSCAN 6 (RS92S6),2025-155D,2026-06-09T06:26:28.524480,15.30002172,.00072755,97.4550,128.7905,189.2786,170.8321,0,U,64879,999,7955,.30650652E-3,.8832E-4,0
GEOSCAN 1 (RS92S1),2025-155E,2026-06-09T06:34:23.416896,15.30585612,.00072099,97.4547,128.9371,188.9289,171.1825,0,U,64880,999,7956,.31693031E-3,.9302E-4,0
239ALFEROV (RS61S),2025-155F,2026-06-09T06:06:46.609632,15.32726626,.00068832,97.4547,129.4530,185.4623,174.6545,0,U,64881,999,7959,.39440445E-3,.12401E-3,0
GEOSCAN 2 (RS92S2),2025-155Q,2026-06-09T06:27:18.816192,15.30857388,.00070943,97.4546,129.0815,174.2831,185.8492,0,U,64890,999,7957,.31633937E-3,.9364E-4,0
GEOSCAN 5 (RS92S5),2025-155R,2026-06-09T05:53:20.533920,15.33045391,.00055745,97.4539,129.5780,188.3888,171.7261,0,U,64891,999,7960,.39035746E-3,.12393E-3,0
GEOSCAN 4 (RS92S4),2025-155S,2026-06-09T05:31:42.589056,15.33194156,.00056203,97.4543,129.6091,189.0018,171.1124,0,U,64892,999,7960,.38340423E-3,.12228E-3,0
