KUZGTU 1 (RS47S)        
1 57217U 23091AV  26160.11933743  .00010934  00000+0  38200-3 0  9995
2 57217  97.5067 224.5181 0012337 122.8475 237.3955 15.29674625163142
SONATE-2                
1 59112U 24043Q   26159.98365493  .00032510  00000+0  43231-3 0  9997
2 59112  97.5525 309.8812 0006639 223.4398 136.6335 15.58104995126619
MESAT1                  
1 60209U 24125G   26160.10233191  .00046749  00000+0  52746-3 0  9992
2 60209  97.2315  17.4056 0008818 236.3134 123.7285 15.62333270108308
OOV-CUBE (TUBSAT-30)    
1 60240U 24128F   26159.80454764  .00002654  00000+0  20896-3 0  9994
2 60240  61.9950 254.8019 0045687 131.8693 228.6311 15.02739260104850
COLIBRI-S (RS67S)       
1 61746U 24199M   26160.23794940  .00019405  00000+0  38027-3 0  9993
2 61746  97.3008  34.0214 0006572 317.0929  42.9807 15.47393907136185
HORS 3 (RS81S)          
1 61753U 24199U   26160.23715612  .00031643  00000+0  48219-3 0  9992
2 61753  97.2991  35.9226 0004225 325.9437  34.1546 15.54423162136325
HORS 4 (RS82S)          
1 61754U 24199V   26160.28544351  .00044184  00000+0  56842-3 0  9993
2 61754  97.2940  37.1231 0003167 312.8153  47.2837 15.58944892136414
ARCTICSAT 1 (RS74S)     
1 61762U 24199AD  26159.53404542  .01003063  58354-3  11763-2 0  9998
2 61762  97.2853  43.1177 0008139 201.8763 158.2174 16.08763925136734
SIT-2086                
1 61764U 24199AF  26160.27019422  .00033112  00000+0  53986-3 0  9994
2 61764  97.2948  36.4604 0004462 296.2636  63.8158 15.52538483133202
HYPERVIEW 1G (RS66S)    
1 61772U 24199AP  26159.86541317  .00099538  00000+0  70384-3 0  9994
2 61772  97.2892  39.1772 0002038 275.6858  84.4174 15.73707202133363
ALTAIR (RS65S)          
1 61779U 24199AW  26160.29928471  .00010439  00000+0  29114-3 0  9998
2 61779  97.3044  29.7027 0011908 342.6494  17.4341 15.36871606135908
ASRTU-1 (AO-123)        
1 61781U 24199AY  26160.28033982  .00006593  00000+0  19257-3 0  9997
2 61781  97.3015  29.0227 0013128 344.8076  15.2771 15.35561332132710
SAMSAT-IONOSPHERE (RS7*)
1 61784U 24199BB  26160.28435559  .00041109  00000+0  56993-3 0  9996
2 61784  97.2962  35.9893 0006244 317.9584  42.1191 15.56938329136338
RTU MIREA 1 (RS51S)     
1 61785U 24199BC  26160.26174708  .00051506  00000+0  63021-3 0  9993
2 61785  97.2951  36.7581 0005681 311.5809  48.4961 15.60225826133230
TEVEL2-4                
1 63213U 25052D   26160.22645372  .00015249  00000+0  46063-3 0  9997
2 63213  97.3920  56.6072 0004533 118.1201 242.0501 15.34330791 68893
TEVEL2-5                
1 63214U 25052E   26160.18084484  .00016193  00000+0  49157-3 0  9990
2 63214  97.3911  56.5103 0004422 119.9533 240.2150 15.34159706 68886
TEVEL2-6                
1 63215U 25052F   26160.25821471  .00016514  00000+0  50179-3 0  9997
2 63215  97.3915  56.5722 0004458 119.7747 240.3940 15.34124854 68897
TEVEL2-1                
1 63217U 25052H   26160.21926555  .00015298  00000+0  47283-3 0  9994
2 63217  97.3890  56.1670 0004303 128.3917 231.7713 15.33600892 68873
TEVEL2-3                
1 63218U 25052J   26160.27943529  .00016163  00000+0  49846-3 0  9990
2 63218  97.3888  56.2474 0004411 129.8518 230.3113 15.33659205 68889
TEVEL2-2                
1 63219U 25052K   26159.69763688  .00018164  00000+0  56087-3 0  9999
2 63219  97.3887  55.6477 0004230 131.0442 229.1167 15.33595395 68799
TEVEL2-9                
1 63237U 25052AD  26160.18680803  .00014556  00000+0  47809-3 0  9995
2 63237  97.3949  55.5291 0007020 153.2929 206.8676 15.31651687 68801
TEVEL2-7                
1 63238U 25052AE  26160.22619544  .00013402  00000+0  44435-3 0  9996
2 63238  97.3950  55.4878 0007125 153.9029 206.2573 15.31364267 68803
TEVEL2-8                
1 63239U 25052AF  26160.23436465  .00013916  00000+0  46151-3 0  9994
2 63239  97.3943  55.4720 0007209 154.6102 205.5495 15.31348638 68804
INNOSAT 16 (RS92S7)     
1 64878U 25155C   26160.26147201  .00004962  00000+0  19933-3 0  9997
2 64878  97.4557 127.4150 0009598 203.8937 156.1857 15.25372593 79466
GEOSCAN 6 (RS92S6)      
1 64879U 25155D   26160.26838570  .00008832  00000+0  30651-3 0  9994
2 64879  97.4550 128.7905 0007275 189.2786 170.8321 15.30002172 79559
GEOSCAN 1 (RS92S1)      
1 64880U 25155E   26160.27388214  .00009302  00000+0  31693-3 0  9992
2 64880  97.4547 128.9371 0007209 188.9289 171.1825 15.30585612 79566
239ALFEROV (RS61S)      
1 64881U 25155F   26160.25470613  .00012401  00000+0  39440-3 0  9998
2 64881  97.4547 129.4530 0006883 185.4623 174.6545 15.32726626 79595
GEOSCAN 2 (RS92S2)      
1 64890U 25155Q   26160.26896778  .00009364  00000+0  31634-3 0  9994
2 64890  97.4546 129.0815 0007094 174.2831 185.8492 15.30857388 79579
GEOSCAN 5 (RS92S5)      
1 64891U 25155R   26160.24537655  .00012393  00000+0  39036-3 0  9999
2 64891  97.4539 129.5780 0005574 188.3888 171.7261 15.33045391 79605
GEOSCAN 4 (RS92S4)      
1 64892U 25155S   26160.23035404  .00012228  00000+0  38340-3 0  9998
2 64892  97.4543 129.6091 0005620 189.0018 171.1124 15.33194156 79608
